HULIANWANG DIGUI-142    
1 67440U 26007F   26023.88214373 -.00000115  00000+0  25024-4 0  9999
2 67440  50.0048 253.5982 0002523 314.3162  45.7530 13.90535672  1439
HULIANWANG DIGUI-143    
1 67441U 26007G   26023.80945129  .00000146  00000+0  23176-3 0  9990
2 67441  50.0266 253.8698 0007430 282.2294  77.7773 13.91012328  1422
HULIANWANG DIGUI-144    
1 67442U 26007H   26023.88036546  .00000122  00000+0  21238-3 0  9994
2 67442  50.0013 253.5868 0002737 328.4135  31.6599 13.91086201  1438
HULIANWANG DIGUI-145    
1 67443U 26007J   26023.87889082  .00000160  00000+0  24126-3 0  9996
2 67443  50.0029 253.5784 0001491 329.9765  30.1049 13.91383131  1430
CZ-8A R/B               
1 67444U 26007K   26024.00996120  .00000186  00000+0  17330-3 0  9992
2 67444  50.0089 251.5920 0092183 118.6402 242.3815 14.13547434  1460
STARLINK-36542          
1 67445U 26008A   26024.16667824 -.01013248  31532-3 -26656-2 0  9991
2 67445  43.0013 104.3361 0001304 270.2553 162.6872 15.93879676  2633
STARLINK-36539          
1 67446U 26008B   26024.16667824 -.01008285  31271-3 -26433-2 0  9990
2 67446  43.0013 104.3302 0001671 270.3877 164.9084 15.93943581  2633
STARLINK-36440          
1 67447U 26008C   26024.16667824 -.01035608  32863-3 -27031-2 0  9993
2 67447  43.0014 104.3240 0001251 264.7641 173.0781 15.94031130  2630
STARLINK-36423          
1 67448U 26008D   26024.16667824 -.01037839  33014-3 -26996-2 0  9990
2 67448  43.0015 104.3180 0001359 273.4654 166.6638 15.94096235  2631
STARLINK-36519          
1 67449U 26008E   26024.16667824 -.01048879  33683-3 -27176-2 0  9990
2 67449  43.0015 104.3117 0001345 272.8346 169.7808 15.94171793  2634
STARLINK-36525          
1 67450U 26008F   26024.16667824 -.01055401  34096-3 -27221-2 0  9991
2 67450  43.0012 104.3044 0001382 271.4169 174.1059 15.94257330  2631
STARLINK-36511          
1 67451U 26008G   26024.16667824 -.01067607  34851-3 -27404-2 0  9995
2 67451  43.0013 104.2969 0001334 271.6232 176.9085 15.94349339  2638
