CCSDS_OMM_VERS = 2.0
CREATION_DATE  = 
ORIGINATOR     = 

OBJECT_NAME    = HULIANWANG DIGUI-142
OBJECT_ID      = 2026-007F
CENTER_NAME    = EARTH
REF_FRAME      = TEME
TIME_SYSTEM    = UTC
MEAN_ELEMENT_THEORY = SGP/SGP4

EPOCH          = 2026-01-23T21:10:17.218272
MEAN_MOTION    = 13.90535672
ECCENTRICITY   = .0002523
INCLINATION    = 50.0048
RA_OF_ASC_NODE = 253.5982
ARG_OF_PERICENTER = 314.3162
MEAN_ANOMALY   = 45.7530

EPHEMERIS_TYPE = 0
CLASSIFICATION_TYPE = U
NORAD_CAT_ID   = 67440
ELEMENT_SET_NO = 999
REV_AT_EPOCH   = 143
BSTAR          = .25024E-4
MEAN_MOTION_DOT = -.115E-5
MEAN_MOTION_DDOT = 0

CCSDS_OMM_VERS = 2.0
CREATION_DATE  = 
ORIGINATOR     = 

OBJECT_NAME    = HULIANWANG DIGUI-143
OBJECT_ID      = 2026-007G
CENTER_NAME    = EARTH
REF_FRAME      = TEME
TIME_SYSTEM    = UTC
MEAN_ELEMENT_THEORY = SGP/SGP4

EPOCH          = 2026-01-23T19:25:36.591456
MEAN_MOTION    = 13.91012328
ECCENTRICITY   = .000743
INCLINATION    = 50.0266
RA_OF_ASC_NODE = 253.8698
ARG_OF_PERICENTER = 282.2294
MEAN_ANOMALY   = 77.7773

EPHEMERIS_TYPE = 0
CLASSIFICATION_TYPE = U
NORAD_CAT_ID   = 67441
ELEMENT_SET_NO = 999
REV_AT_EPOCH   = 142
BSTAR          = .23176E-3
MEAN_MOTION_DOT = .146E-5
MEAN_MOTION_DDOT = 0

CCSDS_OMM_VERS = 2.0
CREATION_DATE  = 
ORIGINATOR     = 

OBJECT_NAME    = HULIANWANG DIGUI-144
OBJECT_ID      = 2026-007H
CENTER_NAME    = EARTH
REF_FRAME      = TEME
TIME_SYSTEM    = UTC
MEAN_ELEMENT_THEORY = SGP/SGP4

EPOCH          = 2026-01-23T21:07:43.575744
MEAN_MOTION    = 13.91086201
ECCENTRICITY   = .0002737
INCLINATION    = 50.0013
RA_OF_ASC_NODE = 253.5868
ARG_OF_PERICENTER = 328.4135
MEAN_ANOMALY   = 31.6599

EPHEMERIS_TYPE = 0
CLASSIFICATION_TYPE = U
NORAD_CAT_ID   = 67442
ELEMENT_SET_NO = 999
REV_AT_EPOCH   = 143
BSTAR          = .21238E-3
MEAN_MOTION_DOT = .122E-5
MEAN_MOTION_DDOT = 0

CCSDS_OMM_VERS = 2.0
CREATION_DATE  = 
ORIGINATOR     = 

OBJECT_NAME    = HULIANWANG DIGUI-145
OBJECT_ID      = 2026-007J
CENTER_NAME    = EARTH
REF_FRAME      = TEME
TIME_SYSTEM    = UTC
MEAN_ELEMENT_THEORY = SGP/SGP4

EPOCH          = 2026-01-23T21:05:36.166848
MEAN_MOTION    = 13.91383131
ECCENTRICITY   = .0001491
INCLINATION    = 50.0029
RA_OF_ASC_NODE = 253.5784
ARG_OF_PERICENTER = 329.9765
MEAN_ANOMALY   = 30.1049

EPHEMERIS_TYPE = 0
CLASSIFICATION_TYPE = U
NORAD_CAT_ID   = 67443
ELEMENT_SET_NO = 999
REV_AT_EPOCH   = 143
BSTAR          = .24126E-3
MEAN_MOTION_DOT = .16E-5
MEAN_MOTION_DDOT = 0

CCSDS_OMM_VERS = 2.0
CREATION_DATE  = 
ORIGINATOR     = 

OBJECT_NAME    = CZ-8A R/B
OBJECT_ID      = 2026-007K
CENTER_NAME    = EARTH
REF_FRAME      = TEME
TIME_SYSTEM    = UTC
MEAN_ELEMENT_THEORY = SGP/SGP4

EPOCH          = 2026-01-24T00:14:20.647680
MEAN_MOTION    = 14.13547434
ECCENTRICITY   = .0092183
INCLINATION    = 50.0089
RA_OF_ASC_NODE = 251.5920
ARG_OF_PERICENTER = 118.6402
MEAN_ANOMALY   = 242.3815

EPHEMERIS_TYPE = 0
CLASSIFICATION_TYPE = U
NORAD_CAT_ID   = 67444
ELEMENT_SET_NO = 999
REV_AT_EPOCH   = 146
BSTAR          = .1733E-3
MEAN_MOTION_DOT = .186E-5
MEAN_MOTION_DDOT = 0

CCSDS_OMM_VERS = 2.0
CREATION_DATE  = 
ORIGINATOR     = 

OBJECT_NAME    = STARLINK-36542
OBJECT_ID      = 2026-008A
CENTER_NAME    = EARTH
REF_FRAME      = TEME
TIME_SYSTEM    = UTC
MEAN_ELEMENT_THEORY = SGP/SGP4

EPOCH          = 2026-01-24T04:00:00.999936
MEAN_MOTION    = 15.93879676
ECCENTRICITY   = .0001304
INCLINATION    = 43.0013
RA_OF_ASC_NODE = 104.3361
ARG_OF_PERICENTER = 270.2553
MEAN_ANOMALY   = 162.6872

EPHEMERIS_TYPE = 0
CLASSIFICATION_TYPE = U
NORAD_CAT_ID   = 67445
ELEMENT_SET_NO = 999
REV_AT_EPOCH   = 263
BSTAR          = -.26656E-2
MEAN_MOTION_DOT = -.1013248E-1
MEAN_MOTION_DDOT = .31532E-3

CCSDS_OMM_VERS = 2.0
CREATION_DATE  = 
ORIGINATOR     = 

OBJECT_NAME    = STARLINK-36539
OBJECT_ID      = 2026-008B
CENTER_NAME    = EARTH
REF_FRAME      = TEME
TIME_SYSTEM    = UTC
MEAN_ELEMENT_THEORY = SGP/SGP4

EPOCH          = 2026-01-24T04:00:00.999936
MEAN_MOTION    = 15.93943581
ECCENTRICITY   = .0001671
INCLINATION    = 43.0013
RA_OF_ASC_NODE = 104.3302
ARG_OF_PERICENTER = 270.3877
MEAN_ANOMALY   = 164.9084

EPHEMERIS_TYPE = 0
CLASSIFICATION_TYPE = U
NORAD_CAT_ID   = 67446
ELEMENT_SET_NO = 999
REV_AT_EPOCH   = 263
BSTAR          = -.26433E-2
MEAN_MOTION_DOT = -.1008285E-1
MEAN_MOTION_DDOT = .31271E-3

CCSDS_OMM_VERS = 2.0
CREATION_DATE  = 
ORIGINATOR     = 

OBJECT_NAME    = STARLINK-36440
OBJECT_ID      = 2026-008C
CENTER_NAME    = EARTH
REF_FRAME      = TEME
TIME_SYSTEM    = UTC
MEAN_ELEMENT_THEORY = SGP/SGP4

EPOCH          = 2026-01-24T04:00:00.999936
MEAN_MOTION    = 15.94031130
ECCENTRICITY   = .0001251
INCLINATION    = 43.0014
RA_OF_ASC_NODE = 104.3240
ARG_OF_PERICENTER = 264.7641
MEAN_ANOMALY   = 173.0781

EPHEMERIS_TYPE = 0
CLASSIFICATION_TYPE = U
NORAD_CAT_ID   = 67447
ELEMENT_SET_NO = 999
REV_AT_EPOCH   = 263
BSTAR          = -.27031E-2
MEAN_MOTION_DOT = -.1035608E-1
MEAN_MOTION_DDOT = .32863E-3

CCSDS_OMM_VERS = 2.0
CREATION_DATE  = 
ORIGINATOR     = 

OBJECT_NAME    = STARLINK-36423
OBJECT_ID      = 2026-008D
CENTER_NAME    = EARTH
REF_FRAME      = TEME
TIME_SYSTEM    = UTC
MEAN_ELEMENT_THEORY = SGP/SGP4

EPOCH          = 2026-01-24T04:00:00.999936
MEAN_MOTION    = 15.94096235
ECCENTRICITY   = .0001359
INCLINATION    = 43.0015
RA_OF_ASC_NODE = 104.3180
ARG_OF_PERICENTER = 273.4654
MEAN_ANOMALY   = 166.6638

EPHEMERIS_TYPE = 0
CLASSIFICATION_TYPE = U
NORAD_CAT_ID   = 67448
ELEMENT_SET_NO = 999
REV_AT_EPOCH   = 263
BSTAR          = -.26996E-2
MEAN_MOTION_DOT = -.1037839E-1
MEAN_MOTION_DDOT = .33014E-3

CCSDS_OMM_VERS = 2.0
CREATION_DATE  = 
ORIGINATOR     = 

OBJECT_NAME    = STARLINK-36519
OBJECT_ID      = 2026-008E
CENTER_NAME    = EARTH
REF_FRAME      = TEME
TIME_SYSTEM    = UTC
MEAN_ELEMENT_THEORY = SGP/SGP4

EPOCH          = 2026-01-24T04:00:00.999936
MEAN_MOTION    = 15.94171793
ECCENTRICITY   = .0001345
INCLINATION    = 43.0015
RA_OF_ASC_NODE = 104.3117
ARG_OF_PERICENTER = 272.8346
MEAN_ANOMALY   = 169.7808

EPHEMERIS_TYPE = 0
CLASSIFICATION_TYPE = U
NORAD_CAT_ID   = 67449
ELEMENT_SET_NO = 999
REV_AT_EPOCH   = 263
BSTAR          = -.27176E-2
MEAN_MOTION_DOT = -.1048879E-1
MEAN_MOTION_DDOT = .33683E-3

CCSDS_OMM_VERS = 2.0
CREATION_DATE  = 
ORIGINATOR     = 

OBJECT_NAME    = STARLINK-36525
OBJECT_ID      = 2026-008F
CENTER_NAME    = EARTH
REF_FRAME      = TEME
TIME_SYSTEM    = UTC
MEAN_ELEMENT_THEORY = SGP/SGP4

EPOCH          = 2026-01-24T04:00:00.999936
MEAN_MOTION    = 15.94257330
ECCENTRICITY   = .0001382
INCLINATION    = 43.0012
RA_OF_ASC_NODE = 104.3044
ARG_OF_PERICENTER = 271.4169
MEAN_ANOMALY   = 174.1059

EPHEMERIS_TYPE = 0
CLASSIFICATION_TYPE = U
NORAD_CAT_ID   = 67450
ELEMENT_SET_NO = 999
REV_AT_EPOCH   = 263
BSTAR          = -.27221E-2
MEAN_MOTION_DOT = -.1055401E-1
MEAN_MOTION_DDOT = .34096E-3

CCSDS_OMM_VERS = 2.0
CREATION_DATE  = 
ORIGINATOR     = 

OBJECT_NAME    = STARLINK-36511
OBJECT_ID      = 2026-008G
CENTER_NAME    = EARTH
REF_FRAME      = TEME
TIME_SYSTEM    = UTC
MEAN_ELEMENT_THEORY = SGP/SGP4

EPOCH          = 2026-01-24T04:00:00.999936
MEAN_MOTION    = 15.94349339
ECCENTRICITY   = .0001334
INCLINATION    = 43.0013
RA_OF_ASC_NODE = 104.2969
ARG_OF_PERICENTER = 271.6232
MEAN_ANOMALY   = 176.9085

EPHEMERIS_TYPE = 0
CLASSIFICATION_TYPE = U
NORAD_CAT_ID   = 67451
ELEMENT_SET_NO = 999
REV_AT_EPOCH   = 263
BSTAR          = -.27404E-2
MEAN_MOTION_DOT = -.1067607E-1
MEAN_MOTION_DDOT = .34851E-3

